[{"OBJECT_NAME":"STARLINK-31310","OBJECT_ID":"2024-041U","EPOCH":"2026-03-09T00:24:35.411328","MEAN_MOTION":15.27495203,"ECCENTRICITY":0.00031514,"INCLINATION":43.0031,"RA_OF_ASC_NODE":314.9263,"ARG_OF_PERICENTER":243.6579,"MEAN_ANOMALY":116.395,"EPHEMERIS_TYPE":0,"CLASSIFICATION_TYPE":"U","NORAD_CAT_ID":59092,"ELEMENT_SET_NO":999,"REV_AT_EPOCH":11416,"BSTAR":0.00067356117,"MEAN_MOTION_DOT":0.00018272,"MEAN_MOTION_DDOT":0},{"OBJECT_NAME":"HERMES-4","OBJECT_ID":"2025-052BP","EPOCH":"2026-03-09T22:05:58.629408","MEAN_MOTION":15.26796135,"ECCENTRICITY":0.00026523,"INCLINATION":97.4,"RA_OF_ASC_NODE":323.461,"ARG_OF_PERICENTER":154.9526,"MEAN_ANOMALY":205.1842,"EPHEMERIS_TYPE":0,"CLASSIFICATION_TYPE":"U","NORAD_CAT_ID":63833,"ELEMENT_SET_NO":999,"REV_AT_EPOCH":5478,"BSTAR":0.00081237216,"MEAN_MOTION_DOT":0.00021364,"MEAN_MOTION_DDOT":0}]
